{
  "type": "FeatureCollection",
  "features": [
    {
      "type": "Feature",
      "properties": {
        "norad_id": 34814,
        "name": "COSMOS 2251 DEB",
        "group": "cosmos-2251-debris",
        "lat": 50.074640002478404,
        "lon": -6.646221389485012,
        "alt_km": 803.7544270652825,
        "timestamp": "2025-12-08T13:49:32.189416+00:00",
        "meta_object_name": "COSMOS 2251 DEB",
        "meta_object_id": "1993-036ABD",
        "meta_epoch": "2025-12-08T05:18:03.614688",
        "meta_mean_motion": 14.36862714,
        "meta_eccentricity": 0.00565126,
        "meta_inclination": 73.8958,
        "meta_ra_of_asc_node": 333.8174,
        "meta_arg_of_pericenter": 224.1506,
        "meta_mean_anomaly": 152.4116,
        "meta_ephemeris_type": 0,
        "meta_classification_type": "U",
        "meta_norad_cat_id": 34814,
        "meta_element_set_no": 999,
        "meta_rev_at_epoch": 87268,
        "meta_bstar": 0.001254214,
        "meta_mean_motion_dot": 3.751e-05,
        "meta_mean_motion_ddot": 0,
        "tle_line1": "1 34814U 93036ABD 25342.22087517  .00003751  00000+0  12542-2 0  9990",
        "tle_line2": "2 34814  73.8958 333.8174 0056512 224.1506 152.4116 14.36862714872683"
      },
      "geometry": {
        "type": "Point",
        "coordinates": [
          -6.646221389485012,
          50.074640002478404
        ]
      }
    },
    {
      "type": "Feature",
      "properties": {
        "norad_id": 34815,
        "name": "COSMOS 2251 DEB",
        "group": "cosmos-2251-debris",
        "lat": -48.693278900413425,
        "lon": -129.024039896417,
        "alt_km": 600.9145326759917,
        "timestamp": "2025-12-08T13:49:32.189426+00:00",
        "meta_object_name": "COSMOS 2251 DEB",
        "meta_object_id": "1993-036ABE",
        "meta_epoch": "2025-12-08T04:18:34.462656",
        "meta_mean_motion": 14.78216739,
        "meta_eccentricity": 0.00589197,
        "meta_inclination": 74.0454,
        "meta_ra_of_asc_node": 250.7536,
        "meta_arg_of_pericenter": 320.8633,
        "meta_mean_anomaly": 38.8287,
        "meta_ephemeris_type": 0,
        "meta_classification_type": "U",
        "meta_norad_cat_id": 34815,
        "meta_element_set_no": 999,
        "meta_rev_at_epoch": 88560,
        "meta_bstar": 0.0012864435,
        "meta_mean_motion_dot": 9.584e-05,
        "meta_mean_motion_ddot": 0,
        "tle_line1": "1 34815U 93036ABE 25342.17956554  .00009584  00000+0  12864-2 0  9998",
        "tle_line2": "2 34815  74.0454 250.7536 0058919 320.8633  38.8287 14.78216739885603"
      },
      "geometry": {
        "type": "Point",
        "coordinates": [
          -129.024039896417,
          -48.693278900413425
        ]
      }
    },
    {
      "type": "Feature",
      "properties": {
        "norad_id": 34816,
        "name": "COSMOS 2251 DEB",
        "group": "cosmos-2251-debris",
        "lat": -70.89938535581923,
        "lon": 26.507707809393395,
        "alt_km": 846.0810715263706,
        "timestamp": "2025-12-08T13:49:32.189437+00:00",
        "meta_object_name": "COSMOS 2251 DEB",
        "meta_object_id": "1993-036ABF",
        "meta_epoch": "2025-12-06T22:26:27.336768",
        "meta_mean_motion": 13.5829822,
        "meta_eccentricity": 0.03736298,
        "meta_inclination": 73.886,
        "meta_ra_of_asc_node": 152.5929,
        "meta_arg_of_pericenter": 218.068,
        "meta_mean_anomaly": 297.1187,
        "meta_ephemeris_type": 0,
        "meta_classification_type": "U",
        "meta_norad_cat_id": 34816,
        "meta_element_set_no": 999,
        "meta_rev_at_epoch": 82704,
        "meta_bstar": 0.0017880706,
        "meta_mean_motion_dot": 2.026e-05,
        "meta_mean_motion_ddot": 0,
        "tle_line1": "1 34816U 93036ABF 25340.93503862  .00002026  00000+0  17881-2 0  9999",
        "tle_line2": "2 34816  73.8860 152.5929 0373629 218.0680 297.1187 13.58298220827040"
      },
      "geometry": {
        "type": "Point",
        "coordinates": [
          26.507707809393395,
          -70.89938535581923
        ]
      }
    },
    {
      "type": "Feature",
      "properties": {
        "norad_id": 34818,
        "name": "COSMOS 2251 DEB",
        "group": "cosmos-2251-debris",
        "lat": 52.93417667981068,
        "lon": 102.32525200031573,
        "alt_km": 766.9314015405471,
        "timestamp": "2025-12-08T13:49:32.189448+00:00",
        "meta_object_name": "COSMOS 2251 DEB",
        "meta_object_id": "1993-036ABH",
        "meta_epoch": "2025-12-08T06:53:07.173312",
        "meta_mean_motion": 14.36958204,
        "meta_eccentricity": 0.00239558,
        "meta_inclination": 74.0356,
        "meta_ra_of_asc_node": 305.1267,
        "meta_arg_of_pericenter": 21.8892,
        "meta_mean_anomaly": 46.3531,
        "meta_ephemeris_type": 0,
        "meta_classification_type": "U",
        "meta_norad_cat_id": 34818,
        "meta_element_set_no": 999,
        "meta_rev_at_epoch": 87306,
        "meta_bstar": 0.00043888373,
        "meta_mean_motion_dot": 1.278e-05,
        "meta_mean_motion_ddot": 0,
        "tle_line1": "1 34818U 93036ABH 25342.28688858  .00001278  00000+0  43888-3 0  9995",
        "tle_line2": "2 34818  74.0356 305.1267 0023955  21.8892  46.3531 14.36958204873067"
      },
      "geometry": {
        "type": "Point",
        "coordinates": [
          102.32525200031573,
          52.93417667981068
        ]
      }
    },
    {
      "type": "Feature",
      "properties": {
        "norad_id": 34819,
        "name": "COSMOS 2251 DEB",
        "group": "cosmos-2251-debris",
        "lat": -2.0450179578812837,
        "lon": 150.07675858457378,
        "alt_km": 688.0990635959215,
        "timestamp": "2025-12-08T13:49:32.189459+00:00",
        "meta_object_name": "COSMOS 2251 DEB",
        "meta_object_id": "1993-036ABJ",
        "meta_epoch": "2025-12-07T18:15:25.765632",
        "meta_mean_motion": 14.63849221,
        "meta_eccentricity": 0.00158632,
        "meta_inclination": 74.018,
        "meta_ra_of_asc_node": 152.2296,
        "meta_arg_of_pericenter": 246.0396,
        "meta_mean_anomaly": 136.7333,
        "meta_ephemeris_type": 0,
        "meta_classification_type": "U",
        "meta_norad_cat_id": 34819,
        "meta_element_set_no": 999,
        "meta_rev_at_epoch": 88156,
        "meta_bstar": 0.0025142708,
        "meta_mean_motion_dot": 0.00013152,
        "meta_mean_motion_ddot": 0,
        "tle_line1": "1 34819U 93036ABJ 25341.76071488  .00013152  00000+0  25143-2 0  9990",
        "tle_line2": "2 34819  74.0180 152.2296 0015863 246.0396 136.7333 14.63849221881561"
      },
      "geometry": {
        "type": "Point",
        "coordinates": [
          150.07675858457378,
          -2.0450179578812837
        ]
      }
    },
    {
      "type": "Feature",
      "properties": {
        "norad_id": 34823,
        "name": "COSMOS 2251 DEB",
        "group": "cosmos-2251-debris",
        "lat": 0.4151892718561017,
        "lon": -69.95611843672715,
        "alt_km": 606.7069645437396,
        "timestamp": "2025-12-08T13:49:32.189469+00:00",
        "meta_object_name": "COSMOS 2251 DEB",
        "meta_object_id": "1993-036ABN",
        "meta_epoch": "2025-12-07T02:20:31.613568",
        "meta_mean_motion": 14.5486148,
        "meta_eccentricity": 0.01552204,
        "meta_inclination": 74.0411,
        "meta_ra_of_asc_node": 112.9601,
        "meta_arg_of_pericenter": 199.1213,
        "meta_mean_anomaly": 160.4087,
        "meta_ephemeris_type": 0,
        "meta_classification_type": "U",
        "meta_norad_cat_id": 34823,
        "meta_element_set_no": 999,
        "meta_rev_at_epoch": 88299,
        "meta_bstar": 0.0014370678,
        "meta_mean_motion_dot": 7.229e-05,
        "meta_mean_motion_ddot": 0,
        "tle_line1": "1 34823U 93036ABN 25341.09758812  .00007229  00000+0  14371-2 0  9993",
        "tle_line2": "2 34823  74.0411 112.9601 0155220 199.1213 160.4087 14.54861480882993"
      },
      "geometry": {
        "type": "Point",
        "coordinates": [
          -69.95611843672715,
          0.4151892718561017
        ]
      }
    },
    {
      "type": "Feature",
      "properties": {
        "norad_id": 34845,
        "name": "COSMOS 2251 DEB",
        "group": "cosmos-2251-debris",
        "lat": -69.1862162062515,
        "lon": 107.213169735593,
        "alt_km": 733.0615792393601,
        "timestamp": "2025-12-08T13:49:32.189479+00:00",
        "meta_object_name": "COSMOS 2251 DEB",
        "meta_object_id": "1993-036ABP",
        "meta_epoch": "2025-12-07T18:15:00.737280",
        "meta_mean_motion": 14.45843427,
        "meta_eccentricity": 0.00221872,
        "meta_inclination": 74.0232,
        "meta_ra_of_asc_node": 157.6431,
        "meta_arg_of_pericenter": 319.2528,
        "meta_mean_anomaly": 40.697,
        "meta_ephemeris_type": 0,
        "meta_classification_type": "U",
        "meta_norad_cat_id": 34845,
        "meta_element_set_no": 999,
        "meta_rev_at_epoch": 87394,
        "meta_bstar": 0.0004761184,
        "meta_mean_motion_dot": 1.669e-05,
        "meta_mean_motion_ddot": 0,
        "tle_line1": "1 34845U 93036ABP 25341.76042520  .00001669  00000+0  47612-3 0  9990",
        "tle_line2": "2 34845  74.0232 157.6431 0022187 319.2528  40.6970 14.45843427873940"
      },
      "geometry": {
        "type": "Point",
        "coordinates": [
          107.213169735593,
          -69.1862162062515
        ]
      }
    }
  ]
}